[{"OBJECT_NAME":"STARLINK-30289","OBJECT_ID":"2023-122X","EPOCH":"2026-03-09T22:00:01.999584","MEAN_MOTION":15.154502,"ECCENTRICITY":0.00025448,"INCLINATION":43.0011,"RA_OF_ASC_NODE":79.8606,"ARG_OF_PERICENTER":284.0605,"MEAN_ANOMALY":121.5991,"EPHEMERIS_TYPE":0,"CLASSIFICATION_TYPE":"U","NORAD_CAT_ID":57653,"ELEMENT_SET_NO":999,"REV_AT_EPOCH":547,"BSTAR":0.0047703811,"MEAN_MOTION_DOT":0.0009282,"MEAN_MOTION_DDOT":0},{"OBJECT_NAME":"FLOCK 4H-6","OBJECT_ID":"2025-276AV","EPOCH":"2026-03-09T17:20:31.081344","MEAN_MOTION":15.19043322,"ECCENTRICITY":0.00022287,"INCLINATION":97.4294,"RA_OF_ASC_NODE":144.0723,"ARG_OF_PERICENTER":346.2393,"MEAN_ANOMALY":13.878,"EPHEMERIS_TYPE":0,"CLASSIFICATION_TYPE":"U","NORAD_CAT_ID":66709,"ELEMENT_SET_NO":999,"REV_AT_EPOCH":1532,"BSTAR":0.00034579491,"MEAN_MOTION_DOT":7.179e-5,"MEAN_MOTION_DDOT":0}]
